*******************************************************************************
Ephemeris / WWW_USER Mon Jul 15 19:33:47 2024 Pasadena, USA      / Horizons    
*******************************************************************************
Target body name: (2015 BP519)                    {source: JPL#11}
Center body name: Earth (399)                     {source: DE441}
Center-site name: Gemini South Obs., Cerro Pachon
*******************************************************************************
Start time      : A.D. 2018-Dec-17 23:51:00.0000 UT      
Stop  time      : A.D. 2018-Dec-18 09:27:00.0000 UT      
Step-size       : 1 minutes
*******************************************************************************
Target pole/equ : undefined
Target radii    : undefined                                                    
Center geodetic : 289.2634, -30.2406227, 2.71233  {E-lon(deg),Lat(deg),Alt(km)}
Center cylindric: 289.2634,5517.21435,-3194.81213 {E-lon(deg),Dxy(km),Dz(km)}
Center pole/equ : ITRF93                          {East-longitude positive}
Center radii    : 6378.137, 6378.137, 6356.752 km {Equator_a, b, pole_c}       
Target primary  : Sun
Vis. interferer : MOON (R_eq= 1737.400) km        {source: DE441}
Rel. light bend : Sun                             {source: DE441}
Rel. lght bnd GM: 1.3271E+11 km^3/s^2                                          
Small-body perts: Yes                             {source: SB441-N16}
Atmos refraction: NO (AIRLESS)
RA format       : HMS
Time format     : CAL 
Calendar mode   : Mixed Julian/Gregorian
RTS-only print  : NO       
EOP file        : eop.240715.p241008                                           
EOP coverage    : DATA-BASED 1962-JAN-20 TO 2024-JUL-15. PREDICTS-> 2024-OCT-07
Units conversion: 1 au= 149597870.700 km, c= 299792.458 km/s, 1 day= 86400.0 s 
Table cut-offs 1: Elevation (-90.0deg=NO ),Airmass (>38.000=NO), Daylight (YES)
Table cut-offs 2: Solar elongation (  0.0,180.0=NO ),Local Hour Angle( 0.0=NO )
Table cut-offs 3: RA/DEC angular rate (     0.0=NO )                           
*******************************************************************************
Initial IAU76/J2000 heliocentric ecliptic osculating elements (au, days, deg.):
  EPOCH=  2459185.5 ! 2020-Dec-02.00 (TDB)         Residual RMS= .076636       
   EC= .9196800569382362   QR= 35.27062259520413   TP= 2473034.2681888649      
   OM= 135.0361763364557   W=  348.1354702472351   IN= 54.13300168900849       
  Equivalent ICRF heliocentric cartesian coordinates (au, au/d):
   X= 1.527332710437156E+01  Y= 4.057000090505051E+01  Z=-2.695001507835700E+01
  VX=-2.654302427537234E-03 VY= 4.512065776218028E-05 VZ= 1.968031006040699E-03
Asteroid physical parameters (km, seconds, rotational period in hours):        
   GM= n.a.                RAD= n.a.               ROTPER= n.a.                
   H= 4.34                 G= .150                 B-V= n.a.                   
                           ALBEDO= n.a.            STYP= n.a.                  
*******************************************************************************
 Date__(UT)__HR:MN     R.A._________(ICRF)_________DEC
******************************************************
$$SOE
 2018-Dec-18 01:54  m  04 26 39.641905 -33 39 36.16406
 2018-Dec-18 01:55  m  04 26 39.638762 -33 39 36.15326
 2018-Dec-18 01:56  m  04 26 39.635619 -33 39 36.14246
 2018-Dec-18 01:57  m  04 26 39.632476 -33 39 36.13165
 2018-Dec-18 01:58  m  04 26 39.629333 -33 39 36.12084
 2018-Dec-18 01:59  m  04 26 39.626190 -33 39 36.11003
 2018-Dec-18 02:00  m  04 26 39.623046 -33 39 36.09922
 2018-Dec-18 02:01  m  04 26 39.619903 -33 39 36.08841
 2018-Dec-18 02:02  m  04 26 39.616760 -33 39 36.07759
 2018-Dec-18 02:03  m  04 26 39.613616 -33 39 36.06677
 2018-Dec-18 02:04  m  04 26 39.610472 -33 39 36.05595
 2018-Dec-18 02:05  m  04 26 39.607329 -33 39 36.04513
 2018-Dec-18 02:06  m  04 26 39.604185 -33 39 36.03431
 2018-Dec-18 02:07  m  04 26 39.601041 -33 39 36.02348
 2018-Dec-18 02:08  m  04 26 39.597897 -33 39 36.01266
 2018-Dec-18 02:09  m  04 26 39.594753 -33 39 36.00183
 2018-Dec-18 02:10  m  04 26 39.591609 -33 39 35.99100
 2018-Dec-18 02:11  m  04 26 39.588465 -33 39 35.98016
 2018-Dec-18 02:12  m  04 26 39.585321 -33 39 35.96933
 2018-Dec-18 02:13  m  04 26 39.582177 -33 39 35.95849
 2018-Dec-18 02:14  m  04 26 39.579033 -33 39 35.94765
 2018-Dec-18 02:15  m  04 26 39.575889 -33 39 35.93681
 2018-Dec-18 02:16  m  04 26 39.572745 -33 39 35.92597
 2018-Dec-18 02:17  m  04 26 39.569600 -33 39 35.91512
 2018-Dec-18 02:18  m  04 26 39.566456 -33 39 35.90427
 2018-Dec-18 02:19  m  04 26 39.563311 -33 39 35.89343
 2018-Dec-18 02:20  m  04 26 39.560167 -33 39 35.88257
 2018-Dec-18 02:21  m  04 26 39.557022 -33 39 35.87172
 2018-Dec-18 02:22  m  04 26 39.553878 -33 39 35.86087
 2018-Dec-18 02:23  m  04 26 39.550733 -33 39 35.85001
 2018-Dec-18 02:24  m  04 26 39.547588 -33 39 35.83915
 2018-Dec-18 02:25  m  04 26 39.544444 -33 39 35.82829
 2018-Dec-18 02:26  m  04 26 39.541299 -33 39 35.81743
 2018-Dec-18 02:27  m  04 26 39.538154 -33 39 35.80656
 2018-Dec-18 02:28  m  04 26 39.535009 -33 39 35.79570
 2018-Dec-18 02:29  m  04 26 39.531864 -33 39 35.78483
 2018-Dec-18 02:30  m  04 26 39.528720 -33 39 35.77396
 2018-Dec-18 02:31  m  04 26 39.525575 -33 39 35.76308
 2018-Dec-18 02:32  m  04 26 39.522430 -33 39 35.75221
 2018-Dec-18 02:33  m  04 26 39.519285 -33 39 35.74133
 2018-Dec-18 02:34  m  04 26 39.516139 -33 39 35.73045
 2018-Dec-18 02:35  m  04 26 39.512994 -33 39 35.71957
 2018-Dec-18 02:36  m  04 26 39.509849 -33 39 35.70869
 2018-Dec-18 02:37  m  04 26 39.506704 -33 39 35.69780
 2018-Dec-18 02:38  m  04 26 39.503559 -33 39 35.68692
 2018-Dec-18 02:39  m  04 26 39.500414 -33 39 35.67603
 2018-Dec-18 02:40  m  04 26 39.497268 -33 39 35.66514
 2018-Dec-18 02:41  m  04 26 39.494123 -33 39 35.65425
 2018-Dec-18 02:42  m  04 26 39.490978 -33 39 35.64335
 2018-Dec-18 02:43  m  04 26 39.487832 -33 39 35.63245
 2018-Dec-18 02:44  m  04 26 39.484687 -33 39 35.62156
 2018-Dec-18 02:45  m  04 26 39.481542 -33 39 35.61065
 2018-Dec-18 02:46  m  04 26 39.478396 -33 39 35.59975
 2018-Dec-18 02:47  m  04 26 39.475251 -33 39 35.58885
 2018-Dec-18 02:48  m  04 26 39.472105 -33 39 35.57794
 2018-Dec-18 02:49  m  04 26 39.468960 -33 39 35.56703
 2018-Dec-18 02:50  m  04 26 39.465814 -33 39 35.55612
 2018-Dec-18 02:51  m  04 26 39.462669 -33 39 35.54521
 2018-Dec-18 02:52  m  04 26 39.459523 -33 39 35.53429
 2018-Dec-18 02:53  m  04 26 39.456378 -33 39 35.52338
 2018-Dec-18 02:54  m  04 26 39.453232 -33 39 35.51246
 2018-Dec-18 02:55  m  04 26 39.450087 -33 39 35.50154
 2018-Dec-18 02:56  m  04 26 39.446941 -33 39 35.49061
 2018-Dec-18 02:57  m  04 26 39.443795 -33 39 35.47969
 2018-Dec-18 02:58  m  04 26 39.440650 -33 39 35.46876
 2018-Dec-18 02:59  m  04 26 39.437504 -33 39 35.45783
 2018-Dec-18 03:00  m  04 26 39.434359 -33 39 35.44690
 2018-Dec-18 03:01  m  04 26 39.431213 -33 39 35.43597
 2018-Dec-18 03:02  m  04 26 39.428067 -33 39 35.42503
 2018-Dec-18 03:03  m  04 26 39.424922 -33 39 35.41409
 2018-Dec-18 03:04  m  04 26 39.421776 -33 39 35.40316
 2018-Dec-18 03:05  m  04 26 39.418630 -33 39 35.39221
 2018-Dec-18 03:06  m  04 26 39.415485 -33 39 35.38127
 2018-Dec-18 03:07  m  04 26 39.412339 -33 39 35.37033
 2018-Dec-18 03:08  m  04 26 39.409193 -33 39 35.35938
 2018-Dec-18 03:09  m  04 26 39.406048 -33 39 35.34843
 2018-Dec-18 03:10  m  04 26 39.402902 -33 39 35.33748
 2018-Dec-18 03:11  m  04 26 39.399756 -33 39 35.32652
 2018-Dec-18 03:12  m  04 26 39.396611 -33 39 35.31557
 2018-Dec-18 03:13  m  04 26 39.393465 -33 39 35.30461
 2018-Dec-18 03:14  m  04 26 39.390319 -33 39 35.29365
 2018-Dec-18 03:15  m  04 26 39.387173 -33 39 35.28269
 2018-Dec-18 03:16  m  04 26 39.384028 -33 39 35.27173
 2018-Dec-18 03:17  m  04 26 39.380882 -33 39 35.26076
 2018-Dec-18 03:18  m  04 26 39.377737 -33 39 35.24979
 2018-Dec-18 03:19  m  04 26 39.374591 -33 39 35.23882
 2018-Dec-18 03:20  m  04 26 39.371445 -33 39 35.22785
 2018-Dec-18 03:21  m  04 26 39.368300 -33 39 35.21688
 2018-Dec-18 03:22  m  04 26 39.365154 -33 39 35.20590
 2018-Dec-18 03:23  m  04 26 39.362008 -33 39 35.19493
 2018-Dec-18 03:24  t  04 26 39.358863 -33 39 35.18395
 2018-Dec-18 03:25  m  04 26 39.355717 -33 39 35.17296
 2018-Dec-18 03:26  m  04 26 39.352572 -33 39 35.16198
 2018-Dec-18 03:27  m  04 26 39.349426 -33 39 35.15099
 2018-Dec-18 03:28  m  04 26 39.346281 -33 39 35.14001
 2018-Dec-18 03:29  m  04 26 39.343135 -33 39 35.12902
 2018-Dec-18 03:30  m  04 26 39.339990 -33 39 35.11802
 2018-Dec-18 03:31  m  04 26 39.336844 -33 39 35.10703
 2018-Dec-18 03:32  m  04 26 39.333699 -33 39 35.09603
 2018-Dec-18 03:33  m  04 26 39.330553 -33 39 35.08504
 2018-Dec-18 03:34  m  04 26 39.327408 -33 39 35.07404
 2018-Dec-18 03:35  m  04 26 39.324263 -33 39 35.06303
 2018-Dec-18 03:36  m  04 26 39.321117 -33 39 35.05203
 2018-Dec-18 03:37  m  04 26 39.317972 -33 39 35.04102
 2018-Dec-18 03:38  m  04 26 39.314827 -33 39 35.03001
 2018-Dec-18 03:39  m  04 26 39.311682 -33 39 35.01900
 2018-Dec-18 03:40  m  04 26 39.308536 -33 39 35.00799
 2018-Dec-18 03:41  m  04 26 39.305391 -33 39 34.99698
 2018-Dec-18 03:42  m  04 26 39.302246 -33 39 34.98596
 2018-Dec-18 03:43  m  04 26 39.299101 -33 39 34.97494
 2018-Dec-18 03:44  m  04 26 39.295956 -33 39 34.96392
 2018-Dec-18 03:45  m  04 26 39.292811 -33 39 34.95290
 2018-Dec-18 03:46  m  04 26 39.289666 -33 39 34.94188
 2018-Dec-18 03:47  m  04 26 39.286521 -33 39 34.93085
 2018-Dec-18 03:48  m  04 26 39.283376 -33 39 34.91982
 2018-Dec-18 03:49  m  04 26 39.280231 -33 39 34.90879
 2018-Dec-18 03:50  m  04 26 39.277086 -33 39 34.89776
 2018-Dec-18 03:51  m  04 26 39.273941 -33 39 34.88672
 2018-Dec-18 03:52  m  04 26 39.270796 -33 39 34.87569
 2018-Dec-18 03:53  m  04 26 39.267652 -33 39 34.86465
 2018-Dec-18 03:54  m  04 26 39.264507 -33 39 34.85361
 2018-Dec-18 03:55  m  04 26 39.261362 -33 39 34.84256
 2018-Dec-18 03:56  m  04 26 39.258218 -33 39 34.83152
